[
    {
        "Altitude(m)": 605470.7725612881,
        "Argument of Periapsis(deg)": 0.0,
        "Eccentricity": 0.0,
        "Inclination(deg)": 60.0,
        "Latitude(deg)": 27.98814953075117,
        "Longitude(deg)": 17.262886195205372,
        "Mean Anomaly(deg)": -212.7273,
        "RAAN(deg)": 315.0,
        "Satellite Name": "Test1 1395",
        "Satellite Number": 1395,
        "Semi-Major Axis(m)": 6980739.136638005,
        "Time(s)": 0
    },
    {
        "Altitude(m)": 605395.8108763596,
        "Argument of Periapsis(deg)": 0.00010418945913296404,
        "Eccentricity": 0.0,
        "Inclination(deg)": 60.0,
        "Latitude(deg)": 27.47384093592518,
        "Longitude(deg)": 17.616075106779295,
        "Mean Anomaly(deg)": -212.10719385453817,
        "RAAN(deg)": 314.99957995086027,
        "Satellite Name": "Test1 1395",
        "Satellite Number": 1395,
        "Semi-Major Axis(m)": 6980739.136638005,
        "Time(s)": 10
    }
]